FACSAT-1                
1 43721U 18096C   22188.76537638  .00012258  00000+0  34145-3 0  9994
2 43721  97.3500 268.5714 0012450 347.3462 131.0587 15.36862919201094
CENTAURI-2              
1 43722U 18096D   22188.69813597  .00017227  00000+0  42834-3 0  9993
2 43722  97.3551 270.5915 0011079 341.9285  18.1566 15.40299643201192
INNOSAT-2               
1 43738U 18096V   22188.75966230  .00033763  00000+0  58307-3 0  9995
2 43738  97.3648 278.0443 0010942 325.7258 154.0733 15.50861872201650
SIRION PATHFINDER-2     
1 43759U 18099B   22188.83497837  .00000790  00000+0  74603-4 0  9994
2 43759  97.6194 255.0712 0013730 187.2410 172.8615 14.96412915196092
CORVUS BC4              
1 43767U 18099K   22188.79749120  .00001733  00000+0  16014-3 0  9992
2 43767  97.6153 253.5121 0011214 190.5627 169.5360 14.95811109196014
MOVE-II                 
1 43780U 18099Y   22188.72550714  .00002907  00000+0  25180-3 0  9997
2 43780  97.6227 255.7195 0012866 194.8679 165.2167 14.97836225196098
SPACEBEE-7              
1 43816U 18099BL  22188.71365143  .00002003  00000+0  17552-3 0  9997
2 43816  97.6243 256.4380 0013123 181.4147 178.7041 14.97724246195682
SPACEBEE-5              
1 43817U 18099BM  22188.72787083  .00005923  00000+0  46320-3 0  9999
2 43817  97.6375 259.4495 0007601 184.2570 175.8591 15.01417830195811
SPACEBEE-6              
1 43818U 18099BN  22188.72294104  .00003174  00000+0  26785-3 0  9996
2 43818  97.6280 257.3538 0013423 179.5317 180.5921 14.98779761195872
SHIELDS 1               
1 43850U 18104B   22188.86495119  .00003009  00000+0  12353-3 0  9996
2 43850  85.0279  38.6728 0013826 180.7293 179.3932 15.23685885197616
STF-1                   
1 43852U 18104D   22188.84911347  .00007103  00000+0  26640-3 0  9995
2 43852  85.0305  38.9419 0012036 192.2764 167.8189 15.26971589197653
ZACUBE-2                
1 43907U 18111AH  22188.74942578  .00005459  00000+0  20125-3 0  9997
2 43907  97.1882  74.3270 0020357  13.4785  72.6660 15.28007616196399
LUME 1                  
1 43908U 18111AJ  22188.64700827  .00006428  00000+0  21812-3 0  9997
2 43908  97.1894  75.8209 0018595   8.5543 351.6011 15.30686293196486
AOBA VELOX-IV           
1 43940U 19003J   22188.85313179  .00027438  00000+0  72198-3 0  9994
2 43940  97.1248 224.1069 0019204  75.2121 285.1251 15.38337417193268
MOVE-IIB                
1 44398U 19038N   22188.91481207  .00007227  00000+0  34739-3 0  9998
2 44398  97.6292 158.4498 0023447  59.5819 300.7727 15.18883857166149
SONATE                  
1 44400U 19038Q   22188.86985651  .00002816  00000+0  15437-3 0  9991
2 44400  97.6408 157.4658 0025235  64.2507 296.1325 15.14763875166025
LUCKY-7                 
1 44406U 19038W   22188.85590474  .00005292  00000+0  27940-3 0  9994
2 44406  97.6390 157.9777 0024411  62.5717 297.7994 15.15707335166059
BEESAT 9                
1 44412U 19038AC  22188.89956277  .00006680  00000+0  33860-3 0  9992
2 44412  97.6360 158.3370 0022131  66.0881 294.2667 15.17087179165793
JAISAT-1                
1 44419U 19038F   22188.87889450  .00006851  00000+0  34269-3 0  9999
2 44419  97.6362 159.1695 0021073  63.6482 296.6911 15.17562155166156
DUCHIFAT-3              
1 44854U 19089C   22188.82083208  .00002037  00000+0  16191-3 0  9996
2 44854  36.9686 339.5915 0008614  17.2782 127.9656 15.01180848140991
EYESAT-NANO             
1 44877U 19092E   22188.75390938  .00006498  00000+0  28053-3 0  9993
2 44877  97.4644  12.9827 0009695 286.4963  73.5208 15.22814989141451
ORBITAL FACTORY 2 (OF-2)
1 45113U 19071C   22188.66709695  .00017463  00000+0  35636-3 0  9997
2 45113  51.6392 319.8458 0009565 247.7607 112.2366 15.46239389136504
M2 PATHFINDER           
1 45727U 20037E   22188.47154983  .00000190  00000+0  24206-4 0  9996
2 45727  97.7369   3.5699 0012311 336.0847  23.9782 14.92061931109815
NETSAT-4                
1 46504U 20068U   22188.80806898  .00000932  00000+0  72834-4 0  9994
2 46504  97.7287 128.5635 0010023 259.8585 100.1510 15.03510995 97102
NETSAT-3                
1 46505U 20068V   22188.82399876  .00001482  00000+0  11329-3 0  9992
2 46505  97.7274 128.4963 0009100 265.6371  94.3815 15.03475616 97117
NETSAT-1                
1 46506U 20068W   22188.77455832  .00002251  00000+0  16996-3 0  9992
2 46506  97.7250 128.3752 0008373 277.4461  82.5815 15.03413856 97105
NETSAT-2                
1 46507U 20068X   22188.78435843  .00002209  00000+0  16697-3 0  9995
2 46507  97.7242 128.3783 0008170 288.8766  71.1574 15.03385548 97056
SAI-1 NANOCONNECT-2     
1 47701U 21015C   22188.41559448  .00007089  00000+0  26458-3 0  9990
2 47701  97.4224 265.2511 0011514  32.6185 327.5763 15.27647283 75266
TSURU                   
1 47927U 98067SD  22186.23768160  .09943166  12481-4  57818-3 0  9991
2 47927  51.6122 204.9020 0003897 301.8435  58.2213 16.41755456 74664
MAYA-2                  
1 47929U 98067SF  22187.50330417  .06258577  12351-4  62901-3 0  9991
2 47929  51.6123 198.3492 0003382 301.7247  58.3448 16.37241531 74823
GUARANISAT-1            
1 47931U 98067SH  22185.91280436  .06972440  12364-4  70134-3 0  9995
2 47931  51.6128 206.4904 0003538 317.0160  43.0588 16.37231343 74610
BEESAT-6                
1 47957U 21022AB  22188.50811547  .00003758  00000+0  24176-3 0  9996
2 47957  97.5263  87.7219 0022378  77.1320  47.3877 15.08787604 70821
SMOG-1                  
1 47964U 21022AJ  22188.71639731  .00004323  00000+0  26709-3 0  9993
2 47964  97.5290  88.9993 0020390  68.5119 291.8282 15.10221260 69944
MMSATS-1                
1 47976U 98067SJ  22188.72210742  .00014244  00000+0  18016-3 0  9992
2 47976  51.6398 223.0919 0002682  53.8314  50.0789 15.59792739 73427
BCCSAT-1                
1 48041U 21022AK  22188.71297161  .00003771  00000+0  23934-3 0  9990
2 48041  97.5295  88.5940 0017026  67.3634 292.9393 15.09369000 69897
BEESAT-5                
1 48083U 21022AM  22188.68068932  .00003741  00000+0  23968-3 0  9998
2 48083  97.5253  87.8931 0022145  76.5005 313.9427 15.08948315 69984
BEESAT-7                
1 48084U 21022AN  22188.68457826  .00003740  00000+0  24022-3 0  9994
2 48084  97.5254  87.9027 0022247  76.8177 313.2573 15.08852600 69570
BEESAT-8                
1 48085U 21022AP  22188.68591366  .00003746  00000+0  24106-3 0  9992
2 48085  97.5260  87.9017 0022181  77.1342 312.7294 15.08778366 70136
RAMSAT                  
1 48850U 98067SL  22188.68918836  .00057438  00000+0  41276-3 0  9994
2 48850  51.6351 214.0589 0003400  38.4872 321.6369 15.73047962 60512
BD-28                   
1 48867U 98067SN  22188.68204308  .00089691  00000+0  51468-3 0  9994
2 48867  51.6273 210.9298 0004653  15.6127 344.5016 15.78017989 59305
BINAR-1                 
1 49272U 98067SR  22188.57732653  .00066064  00000+0  46859-3 0  9999
2 49272  51.6327 218.5279 0007482  17.0303 343.0945 15.73268800 42834
MAYA-3                  
1 49273U 98067SS  22188.56653716  .00196855  00000+0  70017-3 0  9996
2 49273  51.6270 212.3784 0010526  20.1370 340.0048 15.87770991 42911
MAYA-4                  
1 49274U 98067ST  22188.79335680  .00237633  00000+0  89405-3 0  9990
2 49274  51.6301 211.6568 0010093  18.5125 341.6245 15.86530449 42947
CUAVA-1                 
1 49275U 98067SU  22188.70382212  .00115694  00000+0  61344-3 0  9999
2 49275  51.6309 214.6069 0009613  17.8508  87.9418 15.79617152 42848
